IRIDIUM 63              
1 25286U 98021B   25065.71223462  .00000511  00000+0  16771-3 0  9999
2 25286  86.3982 125.1341 0002106  96.9386 263.2051 14.36408412409137
IRIDIUM 69              
1 25319U 98026A   25065.69111515  .00000727  00000+0  22117-3 0  9993
2 25319  86.4007 138.7339 0003106  48.4999 311.6466 14.40801153408303
IRIDIUM 71              
1 25320U 98026B   25065.64254822  .00000618  00000+0  18602-3 0  9992
2 25320  86.3994 133.4670 0004235  80.6702 279.4976 14.41011069408827
IRIDIUM 73              
1 25344U 98032C   25065.55903453  .00000900  00000+0  22042-3 0  9993
2 25344  86.4356  90.4178 0002270  74.9973 285.1484 14.51477578415675
IRIDIUM 82              
1 25467U 98051A   25065.68854990  .00023879  00000+0  81924-3 0  9999
2 25467  86.3745 159.8761 0095041 324.7556  34.7427 15.25715458408290
